IRIDIUM 63              
1 25286U 98021B   25248.14275692  .00000761  00000+0  25234-3 0  9992
2 25286  86.3954  48.5620 0002195  85.6848 274.4600 14.36601898435327
IRIDIUM 69              
1 25319U 98026A   25248.18759937  .00000784  00000+0  23769-3 0  9993
2 25319  86.3927  61.5881 0004352 105.6410 254.5270 14.41036031434589
IRIDIUM 71              
1 25320U 98026B   25247.97585495  .00000749  00000+0  22610-3 0  9992
2 25320  86.3933  56.3554 0002946 135.7191 224.4245 14.41217093435087
IRIDIUM 73              
1 25344U 98032C   25248.29243331  .00001101  00000+0  26884-3 0  9991
2 25344  86.4457  12.7868 0002875  89.7433 270.4102 14.51802733442181
IRIDIUM 82              
1 25467U 98051A   25248.00963571  .00034487  00000+0  88482-3 0  9997
2 25467  86.3601  70.3617 0078252 354.2356   5.7986 15.36015886436197
